ONEWEB-0670             
1 55829U 23029AK  23256.91667824  .00000583  00000+0  13969-2 0  9991
2 55829  87.9232 130.2222 0001182 107.3927  50.0989 13.21026030 27788
ONEWEB-0671             
1 55830U 23029AL  23256.76157746 -.00000405  00000+0 -10435-2 0  9993
2 55830  87.9268 145.4640 0001937  86.5055 273.6299 13.19731501 26711
ONEWEB-0672             
1 55831U 23029AM  23256.91667824 -.01064325  00000+0 -57768+0 0  9993
2 55831  87.0870 118.0184 0003240  87.0972 349.4203 14.15930764 28600
ONEWEB-0673             
1 55832U 23029AN  23256.20718789  .00000201  00000+0  46990-3 0  9992
2 55832  87.9165 145.6281 0002116  84.2125 275.9249 13.19720606 25954
ONEWEB-0674             
1 55833U 23029AP  23256.57136079  .00000065  00000+0  11545-3 0  9995
2 55833  87.9537 130.2981 0000863 125.2173 234.9045 13.27668633 27031
ONEWEB-0675             
1 55834U 23029AQ  23256.75368931  .00000018  00000+0  12132-4 0  9992
2 55834  87.9184 145.4931 0002022  62.7221 297.4117 13.19729640 26750
ONEWEB-0720             
1 55835U 23029AR  23256.21507476  .00000309  00000+0  73830-3 0  9997
2 55835  87.9175 145.6082 0002339  83.6085 276.5314 13.19723822 25898
ONEWEB-0537             
1 56046U 23043A   23256.53581582  .00002655  00000+0  27924-3 0  9992
2 56046  86.8907  76.4558 0005348  71.5684 288.6123 14.89043027 26553
